ORBCOMM FM103           
1 40091U 14040F   25113.84898196  .00001432  00000+0  34481-3 0  9990
2 40091  47.0056 274.4071 0001354  14.3261 345.7662 14.58073544556171
ORBCOMM FM114           
1 41179U 15081A   25112.63873209  .00001185  00000+0  29126-3 0  9993
2 41179  47.0015 189.1990 0001048 108.4502 251.6498 14.58126897496365
ORBCOMM FM119           
1 41180U 15081B   25114.13170581  .00001263  00000+0  30842-3 0  9999
2 41180  46.9997  91.4413 0000991 218.6239 141.4576 14.58045242497836
ORBCOMM FM105           
1 41181U 15081C   25113.88170939  .00000613  00000+0  21810-3 0  9991
2 41181  47.0007  92.3012 0000943  51.3760 308.7204 14.45168488492895
ORBCOMM FM110           
1 41182U 15081D   25112.54758541  .00001708  00000+0  40471-3 0  9995
2 41182  47.0002 189.0142 0002952 267.2536  92.8011 14.57994749496408
ORBCOMM FM118           
1 41183U 15081E   25112.66893234  .00001513  00000+0  36211-3 0  9999
2 41183  47.0037 188.8961 0003525 249.1284 110.9224 14.58093838496340
ORBCOMM FM112           
1 41184U 15081F   25113.97141704  .00001337  00000+0  32434-3 0  9990
2 41184  46.9986  91.3608 0000172 118.8479 241.2424 14.58061611497751
ORBCOMM FM113           
1 41185U 15081G   25114.15367466  .00001636  00000+0  38871-3 0  9990
2 41185  47.0001  90.8156 0000479 192.7017 167.3856 14.58042107497838
