<?xml version="1.0" encoding="UTF-8"?>
<ndm xmlns:xsi="http://www.w3.org/2001/XMLSchema-instance" xsi:noNamespaceSchemaLocation="https://sanaregistry.org/r/ndmxml_unqualified/ndmxml-2.0.0-master-2.0.xsd">
<omm id="CCSDS_OMM_VERS" version="2.0">
<header><CREATION_DATE/><ORIGINATOR/></header><body><segment><metadata><OBJECT_NAME>ORBCOMM FM103</OBJECT_NAME><OBJECT_ID>2014-040F</OBJECT_ID><CENTER_NAME>EARTH</CENTER_NAME><REF_FRAME>TEME</REF_FRAME><TIME_SYSTEM>UTC</TIME_SYSTEM><MEAN_ELEMENT_THEORY>SGP4</MEAN_ELEMENT_THEORY></metadata><data><meanElements><EPOCH>2025-04-23T20:22:32.041344</EPOCH><MEAN_MOTION>14.58073544</MEAN_MOTION><ECCENTRICITY>.0001354</ECCENTRICITY><INCLINATION>47.0056</INCLINATION><RA_OF_ASC_NODE>274.4071</RA_OF_ASC_NODE><ARG_OF_PERICENTER>14.3261</ARG_OF_PERICENTER><MEAN_ANOMALY>345.7662</MEAN_ANOMALY></meanElements><tleParameters><EPHEMERIS_TYPE>0</EPHEMERIS_TYPE><CLASSIFICATION_TYPE>U</CLASSIFICATION_TYPE><NORAD_CAT_ID>40091</NORAD_CAT_ID><ELEMENT_SET_NO>999</ELEMENT_SET_NO><REV_AT_EPOCH>55617</REV_AT_EPOCH><BSTAR>.34481E-3</BSTAR><MEAN_MOTION_DOT>.1432E-4</MEAN_MOTION_DOT><MEAN_MOTION_DDOT>0</MEAN_MOTION_DDOT></tleParameters></data></segment></body></omm>
<omm id="CCSDS_OMM_VERS" version="2.0">
<header><CREATION_DATE/><ORIGINATOR/></header><body><segment><metadata><OBJECT_NAME>ORBCOMM FM114</OBJECT_NAME><OBJECT_ID>2015-081A</OBJECT_ID><CENTER_NAME>EARTH</CENTER_NAME><REF_FRAME>TEME</REF_FRAME><TIME_SYSTEM>UTC</TIME_SYSTEM><MEAN_ELEMENT_THEORY>SGP4</MEAN_ELEMENT_THEORY></metadata><data><meanElements><EPOCH>2025-04-22T15:19:46.452576</EPOCH><MEAN_MOTION>14.58126897</MEAN_MOTION><ECCENTRICITY>.0001048</ECCENTRICITY><INCLINATION>47.0015</INCLINATION><RA_OF_ASC_NODE>189.1990</RA_OF_ASC_NODE><ARG_OF_PERICENTER>108.4502</ARG_OF_PERICENTER><MEAN_ANOMALY>251.6498</MEAN_ANOMALY></meanElements><tleParameters><EPHEMERIS_TYPE>0</EPHEMERIS_TYPE><CLASSIFICATION_TYPE>U</CLASSIFICATION_TYPE><NORAD_CAT_ID>41179</NORAD_CAT_ID><ELEMENT_SET_NO>999</ELEMENT_SET_NO><REV_AT_EPOCH>49636</REV_AT_EPOCH><BSTAR>.29126E-3</BSTAR><MEAN_MOTION_DOT>.1185E-4</MEAN_MOTION_DOT><MEAN_MOTION_DDOT>0</MEAN_MOTION_DDOT></tleParameters></data></segment></body></omm>
<omm id="CCSDS_OMM_VERS" version="2.0">
<header><CREATION_DATE/><ORIGINATOR/></header><body><segment><metadata><OBJECT_NAME>ORBCOMM FM119</OBJECT_NAME><OBJECT_ID>2015-081B</OBJECT_ID><CENTER_NAME>EARTH</CENTER_NAME><REF_FRAME>TEME</REF_FRAME><TIME_SYSTEM>UTC</TIME_SYSTEM><MEAN_ELEMENT_THEORY>SGP4</MEAN_ELEMENT_THEORY></metadata><data><meanElements><EPOCH>2025-04-24T03:09:39.381984</EPOCH><MEAN_MOTION>14.58045242</MEAN_MOTION><ECCENTRICITY>.0000991</ECCENTRICITY><INCLINATION>46.9997</INCLINATION><RA_OF_ASC_NODE>91.4413</RA_OF_ASC_NODE><ARG_OF_PERICENTER>218.6239</ARG_OF_PERICENTER><MEAN_ANOMALY>141.4576</MEAN_ANOMALY></meanElements><tleParameters><EPHEMERIS_TYPE>0</EPHEMERIS_TYPE><CLASSIFICATION_TYPE>U</CLASSIFICATION_TYPE><NORAD_CAT_ID>41180</NORAD_CAT_ID><ELEMENT_SET_NO>999</ELEMENT_SET_NO><REV_AT_EPOCH>49783</REV_AT_EPOCH><BSTAR>.30842E-3</BSTAR><MEAN_MOTION_DOT>.1263E-4</MEAN_MOTION_DOT><MEAN_MOTION_DDOT>0</MEAN_MOTION_DDOT></tleParameters></data></segment></body></omm>
<omm id="CCSDS_OMM_VERS" version="2.0">
<header><CREATION_DATE/><ORIGINATOR/></header><body><segment><metadata><OBJECT_NAME>ORBCOMM FM105</OBJECT_NAME><OBJECT_ID>2015-081C</OBJECT_ID><CENTER_NAME>EARTH</CENTER_NAME><REF_FRAME>TEME</REF_FRAME><TIME_SYSTEM>UTC</TIME_SYSTEM><MEAN_ELEMENT_THEORY>SGP4</MEAN_ELEMENT_THEORY></metadata><data><meanElements><EPOCH>2025-04-23T21:09:39.691296</EPOCH><MEAN_MOTION>14.45168488</MEAN_MOTION><ECCENTRICITY>.0000943</ECCENTRICITY><INCLINATION>47.0007</INCLINATION><RA_OF_ASC_NODE>92.3012</RA_OF_ASC_NODE><ARG_OF_PERICENTER>51.3760</ARG_OF_PERICENTER><MEAN_ANOMALY>308.7204</MEAN_ANOMALY></meanElements><tleParameters><EPHEMERIS_TYPE>0</EPHEMERIS_TYPE><CLASSIFICATION_TYPE>U</CLASSIFICATION_TYPE><NORAD_CAT_ID>41181</NORAD_CAT_ID><ELEMENT_SET_NO>999</ELEMENT_SET_NO><REV_AT_EPOCH>49289</REV_AT_EPOCH><BSTAR>.2181E-3</BSTAR><MEAN_MOTION_DOT>.613E-5</MEAN_MOTION_DOT><MEAN_MOTION_DDOT>0</MEAN_MOTION_DDOT></tleParameters></data></segment></body></omm>
<omm id="CCSDS_OMM_VERS" version="2.0">
<header><CREATION_DATE/><ORIGINATOR/></header><body><segment><metadata><OBJECT_NAME>ORBCOMM FM110</OBJECT_NAME><OBJECT_ID>2015-081D</OBJECT_ID><CENTER_NAME>EARTH</CENTER_NAME><REF_FRAME>TEME</REF_FRAME><TIME_SYSTEM>UTC</TIME_SYSTEM><MEAN_ELEMENT_THEORY>SGP4</MEAN_ELEMENT_THEORY></metadata><data><meanElements><EPOCH>2025-04-22T13:08:31.379424</EPOCH><MEAN_MOTION>14.57994749</MEAN_MOTION><ECCENTRICITY>.0002952</ECCENTRICITY><INCLINATION>47.0002</INCLINATION><RA_OF_ASC_NODE>189.0142</RA_OF_ASC_NODE><ARG_OF_PERICENTER>267.2536</ARG_OF_PERICENTER><MEAN_ANOMALY>92.8011</MEAN_ANOMALY></meanElements><tleParameters><EPHEMERIS_TYPE>0</EPHEMERIS_TYPE><CLASSIFICATION_TYPE>U</CLASSIFICATION_TYPE><NORAD_CAT_ID>41182</NORAD_CAT_ID><ELEMENT_SET_NO>999</ELEMENT_SET_NO><REV_AT_EPOCH>49640</REV_AT_EPOCH><BSTAR>.40471E-3</BSTAR><MEAN_MOTION_DOT>.1708E-4</MEAN_MOTION_DOT><MEAN_MOTION_DDOT>0</MEAN_MOTION_DDOT></tleParameters></data></segment></body></omm>
<omm id="CCSDS_OMM_VERS" version="2.0">
<header><CREATION_DATE/><ORIGINATOR/></header><body><segment><metadata><OBJECT_NAME>ORBCOMM FM118</OBJECT_NAME><OBJECT_ID>2015-081E</OBJECT_ID><CENTER_NAME>EARTH</CENTER_NAME><REF_FRAME>TEME</REF_FRAME><TIME_SYSTEM>UTC</TIME_SYSTEM><MEAN_ELEMENT_THEORY>SGP4</MEAN_ELEMENT_THEORY></metadata><data><meanElements><EPOCH>2025-04-22T16:03:15.754176</EPOCH><MEAN_MOTION>14.58093838</MEAN_MOTION><ECCENTRICITY>.0003525</ECCENTRICITY><INCLINATION>47.0037</INCLINATION><RA_OF_ASC_NODE>188.8961</RA_OF_ASC_NODE><ARG_OF_PERICENTER>249.1284</ARG_OF_PERICENTER><MEAN_ANOMALY>110.9224</MEAN_ANOMALY></meanElements><tleParameters><EPHEMERIS_TYPE>0</EPHEMERIS_TYPE><CLASSIFICATION_TYPE>U</CLASSIFICATION_TYPE><NORAD_CAT_ID>41183</NORAD_CAT_ID><ELEMENT_SET_NO>999</ELEMENT_SET_NO><REV_AT_EPOCH>49634</REV_AT_EPOCH><BSTAR>.36211E-3</BSTAR><MEAN_MOTION_DOT>.1513E-4</MEAN_MOTION_DOT><MEAN_MOTION_DDOT>0</MEAN_MOTION_DDOT></tleParameters></data></segment></body></omm>
<omm id="CCSDS_OMM_VERS" version="2.0">
<header><CREATION_DATE/><ORIGINATOR/></header><body><segment><metadata><OBJECT_NAME>ORBCOMM FM112</OBJECT_NAME><OBJECT_ID>2015-081F</OBJECT_ID><CENTER_NAME>EARTH</CENTER_NAME><REF_FRAME>TEME</REF_FRAME><TIME_SYSTEM>UTC</TIME_SYSTEM><MEAN_ELEMENT_THEORY>SGP4</MEAN_ELEMENT_THEORY></metadata><data><meanElements><EPOCH>2025-04-23T23:18:50.432256</EPOCH><MEAN_MOTION>14.58061611</MEAN_MOTION><ECCENTRICITY>.0000172</ECCENTRICITY><INCLINATION>46.9986</INCLINATION><RA_OF_ASC_NODE>91.3608</RA_OF_ASC_NODE><ARG_OF_PERICENTER>118.8479</ARG_OF_PERICENTER><MEAN_ANOMALY>241.2424</MEAN_ANOMALY></meanElements><tleParameters><EPHEMERIS_TYPE>0</EPHEMERIS_TYPE><CLASSIFICATION_TYPE>U</CLASSIFICATION_TYPE><NORAD_CAT_ID>41184</NORAD_CAT_ID><ELEMENT_SET_NO>999</ELEMENT_SET_NO><REV_AT_EPOCH>49775</REV_AT_EPOCH><BSTAR>.32434E-3</BSTAR><MEAN_MOTION_DOT>.1337E-4</MEAN_MOTION_DOT><MEAN_MOTION_DDOT>0</MEAN_MOTION_DDOT></tleParameters></data></segment></body></omm>
<omm id="CCSDS_OMM_VERS" version="2.0">
<header><CREATION_DATE/><ORIGINATOR/></header><body><segment><metadata><OBJECT_NAME>ORBCOMM FM113</OBJECT_NAME><OBJECT_ID>2015-081G</OBJECT_ID><CENTER_NAME>EARTH</CENTER_NAME><REF_FRAME>TEME</REF_FRAME><TIME_SYSTEM>UTC</TIME_SYSTEM><MEAN_ELEMENT_THEORY>SGP4</MEAN_ELEMENT_THEORY></metadata><data><meanElements><EPOCH>2025-04-24T03:41:17.490624</EPOCH><MEAN_MOTION>14.58042107</MEAN_MOTION><ECCENTRICITY>.0000479</ECCENTRICITY><INCLINATION>47.0001</INCLINATION><RA_OF_ASC_NODE>90.8156</RA_OF_ASC_NODE><ARG_OF_PERICENTER>192.7017</ARG_OF_PERICENTER><MEAN_ANOMALY>167.3856</MEAN_ANOMALY></meanElements><tleParameters><EPHEMERIS_TYPE>0</EPHEMERIS_TYPE><CLASSIFICATION_TYPE>U</CLASSIFICATION_TYPE><NORAD_CAT_ID>41185</NORAD_CAT_ID><ELEMENT_SET_NO>999</ELEMENT_SET_NO><REV_AT_EPOCH>49783</REV_AT_EPOCH><BSTAR>.38871E-3</BSTAR><MEAN_MOTION_DOT>.1636E-4</MEAN_MOTION_DOT><MEAN_MOTION_DDOT>0</MEAN_MOTION_DDOT></tleParameters></data></segment></body></omm>

</ndm>
